start=new Date('2022-10-25T00:00:00.000Z').valueOf();
sats=[{"PERIAPSIS":"546.167","BSTAR":"0.00001039900000","CENTER_NAME":"EARTH","MEAN_ELEMENT_THEORY":"SGP4","CLASSIFICATION_TYPE":"U","REF_FRAME":"TEME","SEMIMAJOR_AXIS":"6925.377","MEAN_ANOMALY":"237.0270","TIME_SYSTEM":"UTC","GP_ID":"216071253","LAUNCH_DATE":"2021-05-04","DECAY_DATE":null,"INCLINATION":"53.0545","TLE_LINE1":"1 48367U 21038Q   22297.71061529 -.00000127  00000-0  10399-4 0  9992","ECCENTRICITY":"0.00015520","APOAPSIS":"548.317","OBJECT_ID":"2021-038Q","REV_AT_EPOCH":"8147","MEAN_MOTION":"15.06390671","EPHEMERIS_TYPE":"0","SITE":"AFETR","TLE_LINE2":"2 48367  53.0545 122.1947 0001552 123.0868 237.0270 15.06390671 81478","ELEMENT_SET_NO":"999","RA_OF_ASC_NODE":"122.1947","EPOCH":"2022-10-24T17:03:17.161056","PERIOD":"95.593","FILE":"3631857","OBJECT_TYPE":"PAYLOAD","ARG_OF_PERICENTER":"123.0868","MEAN_MOTION_DDOT":"0.0000000000000","RCS_SIZE":"LARGE","OBJECT_NAME":"STARLINK-2643","NORAD_CAT_ID":"48367","MEAN_MOTION_DOT":"-0.00000127","COUNTRY_CODE":"US"},{"SITE":"AFETR","TLE_LINE2":"2 48368  53.0535 122.5720 0001431 131.4796 228.6316 15.06385035 81475","RA_OF_ASC_NODE":"122.5720","ELEMENT_SET_NO":"999","EPOCH":"2022-10-24T16:31:29.626176","FILE":"3631857","PERIOD":"95.593","OBJECT_TYPE":"PAYLOAD","ARG_OF_PERICENTER":"131.4796","MEAN_MOTION_DDOT":"0.0000000000000","OBJECT_NAME":"STARLINK-2623","NORAD_CAT_ID":"48368","RCS_SIZE":"LARGE","MEAN_MOTION_DOT":"-0.00001028","COUNTRY_CODE":"US","PERIAPSIS":"546.268","CENTER_NAME":"EARTH","BSTAR":"-0.00005011600000","CLASSIFICATION_TYPE":"U","MEAN_ELEMENT_THEORY":"SGP4","MEAN_ANOMALY":"228.6316","TIME_SYSTEM":"UTC","REF_FRAME":"TEME","SEMIMAJOR_AXIS":"6925.394","GP_ID":"216071004","DECAY_DATE":null,"LAUNCH_DATE":"2021-05-04","INCLINATION":"53.0535","ECCENTRICITY":"0.00014310","TLE_LINE1":"1 48368U 21038R   22297.68853734 -.00001028  00000-0 -50116-4 0  9999","REV_AT_EPOCH":"8147","OBJECT_ID":"2021-038R","APOAPSIS":"548.250","EPHEMERIS_TYPE":"0","MEAN_MOTION":"15.06385035"},{"COUNTRY_CODE":"US","RCS_SIZE":"LARGE","NORAD_CAT_ID":"48369","OBJECT_NAME":"STARLINK-2641","MEAN_MOTION_DOT":"0.00000491","ARG_OF_PERICENTER":"115.7530","MEAN_MOTION_DDOT":"0.0000000000000","OBJECT_TYPE":"PAYLOAD","EPOCH":"2022-10-24T16:57:58.778784","PERIOD":"95.593","FILE":"3631857","ELEMENT_SET_NO":"999","RA_OF_ASC_NODE":"122.2117","SITE":"AFETR","TLE_LINE2":"2 48369  53.0539 122.2117 0001661 115.7530 244.3631 15.06389381 81476","MEAN_MOTION":"15.06389381","EPHEMERIS_TYPE":"0","APOAPSIS":"548.396","OBJECT_ID":"2021-038S","REV_AT_EPOCH":"8147","INCLINATION":"53.0539","TLE_LINE1":"1 48369U 21038S   22297.70693031  .00000491  00000-0  51860-4 0  9993","ECCENTRICITY":"0.00016610","LAUNCH_DATE":"2021-05-04","DECAY_DATE":null,"GP_ID":"216070252","MEAN_ELEMENT_THEORY":"SGP4","CLASSIFICATION_TYPE":"U","REF_FRAME":"TEME","SEMIMAJOR_AXIS":"6925.381","MEAN_ANOMALY":"244.3631","TIME_SYSTEM":"UTC","BSTAR":"0.00005186000000","CENTER_NAME":"EARTH","PERIAPSIS":"546.096"},{"FILE":"3631857","PERIOD":"95.593","EPOCH":"2022-10-24T16:52:40.421568","RA_OF_ASC_NODE":"122.2269","ELEMENT_SET_NO":"999","TLE_LINE2":"2 48370  53.0545 122.2269 0001349 129.1525 230.9584 15.06382929 81478","SITE":"AFETR","COUNTRY_CODE":"US","MEAN_MOTION_DOT":"-0.00001402","NORAD_CAT_ID":"48370","OBJECT_NAME":"STARLINK-2621","RCS_SIZE":"LARGE","MEAN_MOTION_DDOT":"0.0000000000000","ARG_OF_PERICENTER":"129.1525","OBJECT_TYPE":"PAYLOAD","GP_ID":"216070502","TIME_SYSTEM":"UTC","MEAN_ANOMALY":"230.9584","SEMIMAJOR_AXIS":"6925.401","REF_FRAME":"TEME","CLASSIFICATION_TYPE":"U","MEAN_ELEMENT_THEORY":"SGP4","CENTER_NAME":"EARTH","BSTAR":"-0.00007531200000","PERIAPSIS":"546.332","EPHEMERIS_TYPE":"0","MEAN_MOTION":"15.06382929","REV_AT_EPOCH":"8147","OBJECT_ID":"2021-038T","APOAPSIS":"548.200","ECCENTRICITY":"0.00013490","TLE_LINE1":"1 48370U 21038T   22297.70324562 -.00001402  00000-0 -75312-4 0  9998","INCLINATION":"53.0545","DECAY_DATE":null,"LAUNCH_DATE":"2021-05-04"},{"FILE":"3631857","PERIOD":"95.593","EPOCH":"2022-10-24T16:47:20.897088","RA_OF_ASC_NODE":"122.2469","ELEMENT_SET_NO":"999","TLE_LINE2":"2 48371  53.0515 122.2469 0001356 121.3939 238.7183 15.06389411 81473","SITE":"AFETR","COUNTRY_CODE":"US","MEAN_MOTION_DOT":"-0.00004821","NORAD_CAT_ID":"48371","OBJECT_NAME":"STARLINK-2589","RCS_SIZE":"LARGE","MEAN_MOTION_DDOT":"0.0000000000000","ARG_OF_PERICENTER":"121.3939","OBJECT_TYPE":"PAYLOAD","GP_ID":"216070754","MEAN_ANOMALY":"238.7183","TIME_SYSTEM":"UTC","REF_FRAME":"TEME","SEMIMAJOR_AXIS":"6925.381","CLASSIFICATION_TYPE":"U","MEAN_ELEMENT_THEORY":"SGP4","CENTER_NAME":"EARTH","BSTAR":"-0.00030508000000","PERIAPSIS":"546.307","EPHEMERIS_TYPE":"0","MEAN_MOTION":"15.06389411","REV_AT_EPOCH":"8147","OBJECT_ID":"2021-038U","APOAPSIS":"548.185","ECCENTRICITY":"0.00013560","TLE_LINE1":"1 48371U 21038U   22297.69954742 -.00004821  00000-0 -30508-3 0  9991","INCLINATION":"53.0515","DECAY_DATE":null,"LAUNCH_DATE":"2021-05-04"},{"COUNTRY_CODE":"US","MEAN_MOTION_DOT":"-0.00001093","OBJECT_NAME":"STARLINK-2572","NORAD_CAT_ID":"48372","RCS_SIZE":"LARGE","MEAN_MOTION_DDOT":"0.0000000000000","ARG_OF_PERICENTER":"107.9679","OBJECT_TYPE":"PAYLOAD","FILE":"3631857","PERIOD":"95.593","EPOCH":"2022-10-24T16:42:03.069504","RA_OF_ASC_NODE":"122.2615","ELEMENT_SET_NO":"999","TLE_LINE2":"2 48372  53.0530 122.2615 0001262 107.9679 252.1447 15.06391385 81477","SITE":"AFETR","EPHEMERIS_TYPE":"0","MEAN_MOTION":"15.06391385","OBJECT_ID":"2021-038V","REV_AT_EPOCH":"8147","APOAPSIS":"548.114","ECCENTRICITY":"0.00012620","TLE_LINE1":"1 48372U 21038V   22297.69586886 -.00001093  00000-0 -54501-4 0  9990","INCLINATION":"53.0530","LAUNCH_DATE":"2021-05-04","DECAY_DATE":null,"GP_ID":"216071504","MEAN_ANOMALY":"252.1447","TIME_SYSTEM":"UTC","REF_FRAME":"TEME","SEMIMAJOR_AXIS":"6925.375","CLASSIFICATION_TYPE":"U","MEAN_ELEMENT_THEORY":"SGP4","CENTER_NAME":"EARTH","BSTAR":"-0.00005450100000","PERIAPSIS":"546.366"},{"RA_OF_ASC_NODE":"122.2668","ELEMENT_SET_NO":"999","FILE":"3631857","PERIOD":"95.593","EPOCH":"2022-10-24T16:36:44.348544","TLE_LINE2":"2 48373  53.0536 122.2668 0001472 122.4567 237.6564 15.06393195 81472","SITE":"AFETR","MEAN_MOTION_DOT":"0.00000538","NORAD_CAT_ID":"48373","OBJECT_NAME":"STARLINK-2609","RCS_SIZE":"LARGE","COUNTRY_CODE":"US","OBJECT_TYPE":"PAYLOAD","MEAN_MOTION_DDOT":"0.0000000000000","ARG_OF_PERICENTER":"122.4567","MEAN_ANOMALY":"237.6564","TIME_SYSTEM":"UTC","REF_FRAME":"TEME","SEMIMAJOR_AXIS":"6925.369","CLASSIFICATION_TYPE":"U","MEAN_ELEMENT_THEORY":"SGP4","GP_ID":"216069753","PERIAPSIS":"546.215","CENTER_NAME":"EARTH","BSTAR":"0.00005502600000","OBJECT_ID":"2021-038W","REV_AT_EPOCH":"8147","APOAPSIS":"548.254","EPHEMERIS_TYPE":"0","MEAN_MOTION":"15.06393195","DECAY_DATE":null,"LAUNCH_DATE":"2021-05-04","ECCENTRICITY":"0.00014720","TLE_LINE1":"1 48373U 21038W   22297.69217996  .00000538  00000-0  55026-4 0  9998","INCLINATION":"53.0536"},{"INCLINATION":"53.0548","ECCENTRICITY":"0.00013160","TLE_LINE1":"1 48374U 21038X   22297.82025159 -.00001667  00000-0 -93058-4 0  9995","LAUNCH_DATE":"2021-05-04","DECAY_DATE":null,"EPHEMERIS_TYPE":"0","MEAN_MOTION":"15.06382382","REV_AT_EPOCH":"8149","OBJECT_ID":"2021-038X","APOAPSIS":"548.179","CENTER_NAME":"EARTH","BSTAR":"-0.00009305800000","PERIAPSIS":"546.356","GP_ID":"216070003","CLASSIFICATION_TYPE":"U","MEAN_ELEMENT_THEORY":"SGP4","TIME_SYSTEM":"UTC","MEAN_ANOMALY":"246.0708","SEMIMAJOR_AXIS":"6925.403","REF_FRAME":"TEME","ARG_OF_PERICENTER":"114.0419","MEAN_MOTION_DDOT":"0.0000000000000","OBJECT_TYPE":"PAYLOAD","COUNTRY_CODE":"US","OBJECT_NAME":"STARLINK-2604","NORAD_CAT_ID":"48374","RCS_SIZE":"LARGE","MEAN_MOTION_DOT":"-0.00001667","SITE":"AFETR","TLE_LINE2":"2 48374  53.0548 121.6894 0001316 114.0419 246.0708 15.06382382 81492","EPOCH":"2022-10-24T19:41:09.737376","FILE":"3631857","PERIOD":"95.593","RA_OF_ASC_NODE":"121.6894","ELEMENT_SET_NO":"999"},{"MEAN_MOTION_DOT":"-0.00001098","RCS_SIZE":"LARGE","OBJECT_NAME":"STARLINK-2603","NORAD_CAT_ID":"48375","COUNTRY_CODE":"US","OBJECT_TYPE":"PAYLOAD","MEAN_MOTION_DDOT":"0.0000000000000","ARG_OF_PERICENTER":"112.7485","ELEMENT_SET_NO":"999","RA_OF_ASC_NODE":"122.3049","PERIOD":"95.592","FILE":"3631857","EPOCH":"2022-10-24T16:26:08.186208","TLE_LINE2":"2 48375  53.0538 122.3049 0001302 112.7485 247.3642 15.06396183 81478","SITE":"AFETR","APOAPSIS":"548.127","OBJECT_ID":"2021-038Y","REV_AT_EPOCH":"8147","MEAN_MOTION":"15.06396183","EPHEMERIS_TYPE":"0","DECAY_DATE":null,"LAUNCH_DATE":"2021-05-04","TLE_LINE1":"1 48375U 21038Y   22297.68481697 -.00001098  00000-0 -54858-4 0  9996","ECCENTRICITY":"0.00013020","INCLINATION":"53.0538","REF_FRAME":"TEME","SEMIMAJOR_AXIS":"6925.360","MEAN_ANOMALY":"247.3642","TIME_SYSTEM":"UTC","MEAN_ELEMENT_THEORY":"SGP4","CLASSIFICATION_TYPE":"U","GP_ID":"216071254","PERIAPSIS":"546.324","BSTAR":"-0.00005485800000","CENTER_NAME":"EARTH"},{"BSTAR":"-0.00007509400000","CENTER_NAME":"EARTH","PERIAPSIS":"546.309","GP_ID":"216071005","REF_FRAME":"TEME","SEMIMAJOR_AXIS":"6925.404","TIME_SYSTEM":"UTC","MEAN_ANOMALY":"238.4189","MEAN_ELEMENT_THEORY":"SGP4","CLASSIFICATION_TYPE":"U","TLE_LINE1":"1 48376U 21038Z   22297.74747826 -.00001399  00000-0 -75094-4 0  9992","ECCENTRICITY":"0.00013860","INCLINATION":"53.0534","DECAY_DATE":null,"LAUNCH_DATE":"2021-05-04","MEAN_MOTION":"15.06381812","EPHEMERIS_TYPE":"0","APOAPSIS":"548.229","REV_AT_EPOCH":"8148","OBJECT_ID":"2021-038Z","TLE_LINE2":"2 48376  53.0534 122.0299 0001386 121.6935 238.4189 15.06381812 81481","SITE":"AFETR","PERIOD":"95.593","FILE":"3631857","EPOCH":"2022-10-24T17:56:22.121664","ELEMENT_SET_NO":"999","RA_OF_ASC_NODE":"122.0299","MEAN_MOTION_DDOT":"0.0000000000000","ARG_OF_PERICENTER":"121.6935","OBJECT_TYPE":"PAYLOAD","COUNTRY_CODE":"US","MEAN_MOTION_DOT":"-0.00001399","RCS_SIZE":"LARGE","NORAD_CAT_ID":"48376","OBJECT_NAME":"STARLINK-2610"}];
